NORAD_CAT_ID,OBJECT_NAME,OBJECT_TYPE,EPOCH,MEAN_MOTION,ECCENTRICITY,INCLINATION,RA_OF_ASC_NODE,ARG_OF_PERICENTER,MEAN_ANOMALY,BSTAR,MEAN_MOTION_DOT,MEAN_MOTION_DDOT,TLE_LINE0,TLE_LINE1,TLE_LINE2,SEMIMAJOR_AXIS,PERIOD,APOGEE,PERIGEE,DECAYED
52300.0,STARLINK-3769,PAYLOAD,2022-07-29 22:00:00,15.08847336,0.0001431,53.2171,259.3077,67.8281,109.6208,-0.00097716,-0.00015809,0.0,0 STARLINK-3769,1 52300U 22041AR  22210.91667824 -.00015809  00000-0 -97716-3 0  9997,2 52300  53.2171 259.3077 0001431  67.8281 109.6208 15.08847336  1300,6917.858,95.437,540.7130000000002,538.7330000000002,0.0
52300.0,STARLINK-3769,PAYLOAD,2022-07-30 06:00:00,15.08843597,0.0001554999999999,53.2172,257.8117,69.8812,119.1635,-0.002301,-0.00036726,0.0,0 STARLINK-3769,1 52300U 22041AR  22211.25001157 -.00036726  00000-0 -23010-2 0  9992,2 52300  53.2172 257.8117 0001555  69.8812 119.1635 15.08843597 16680,6917.869000000002,95.437,540.81,538.659,0.0
52300.0,STARLINK-3769,PAYLOAD,2022-07-30 14:00:01,15.08799803,0.0001629,53.2169,256.3166,62.01,138.6234,0.0028581,0.00045442,0.0,0 STARLINK-3769,1 52300U 22041AR  22211.58334491  .00045442  00000-0  28581-2 0  9999,2 52300  53.2169 256.3166 0001629  62.0100 138.6234 15.08799803  1305,6918.003000000002,95.44,540.995,538.741,0.0
52300.0,STARLINK-3769,PAYLOAD,2022-07-30 22:00:00,15.08811651,0.000149,53.217,254.8185,69.2511,142.9554,0.00122,0.00019167,0.0,0 STARLINK-3769,1 52300U 22041AR  22211.91667824  .00019167  00000-0  12200-2 0  9991,2 52300  53.2170 254.8185 0001490  69.2511 142.9554 15.08811651  1301,6917.967,95.439,540.863,538.8009999999998,0.0
52300.0,STARLINK-3769,PAYLOAD,2022-07-31 14:00:01,15.08807892,0.0001597,53.2167,251.8275,62.2831,173.0783,0.0024338,0.00038624,0.0,0 STARLINK-3769,1 52300U 22041AR  22212.58334491  .00038624  00000-0  24338-2 0  9990,2 52300  53.2167 251.8275 0001597  62.2831 173.0783 15.08807892  1301,6917.979,95.44,540.948,538.739,0.0
52300.0,STARLINK-3769,PAYLOAD,2022-07-31 22:00:00,15.08812277,0.0001469,53.2168,250.3294,70.248,176.6953,0.0017059,0.00026945,0.0,0 STARLINK-3769,1 52300U 22041AR  22212.91667824  .00026945  00000-0  17059-2 0  9991,2 52300  53.2168 250.3294 0001469  70.2480 176.6953 15.08812277 16941,6917.965,95.439,540.846,538.814,0.0
52300.0,STARLINK-3769,PAYLOAD,2022-08-01 14:00:01,15.08816045,0.0001573,53.2163,247.3384,62.9993,207.1053,0.0018980999999999,0.0003003,0.0,0 STARLINK-3769,1 52300U 22041AR  22213.58334491  .00030030  00000-0  18981-2 0  9991,2 52300  53.2163 247.3384 0001573  62.9993 207.1053 15.08816045 17045,6917.954000000002,95.439,540.9069999999998,538.73,0.0
52300.0,STARLINK-3769,PAYLOAD,2022-08-01 22:00:00,15.08811395,0.0001468,53.2164,245.8402,71.3969,210.2959,0.0021124,0.00033465,0.0,0 STARLINK-3769,1 52300U 22041AR  22213.91667824  .00033465  00000-0  21124-2 0  9995,2 52300  53.2164 245.8402 0001468  71.3969 210.2959 15.08811395  1305,6917.968000000003,95.439,540.8480000000002,538.817,0.0
52300.0,STARLINK-3769,PAYLOAD,2022-08-02 06:00:02,15.0884727,0.0001534,53.2164,244.3448,70.0014,223.3267,-0.0019075,-0.00030524,0.0,0 STARLINK-3769,1 52300U 22041AR  22214.25002315 -.00030524  00000-0 -19075-2 0  9998,2 52300  53.2164 244.3448 0001534  70.0014 223.3267 15.08847270 17147,6917.858,95.437,540.784,538.6619999999998,0.0
52300.0,STARLINK-3769,PAYLOAD,2022-08-02 14:00:01,15.08822901,0.0001571999999999,53.216,242.8492,63.1206,241.7365,0.001316,0.00020708,0.0,0 STARLINK-3769,1 52300U 22041AR  22214.58334491  .00020708  00000-0  13160-2 0  9997,2 52300  53.2160 242.8492 0001572  63.1206 241.7365 15.08822901  1301,6917.933000000001,95.439,540.885,538.71,0.0
52300.0,STARLINK-3769,PAYLOAD,2022-08-03 14:00:01,15.08830171,0.0001605,53.216,238.3599,62.1602,277.458,0.00083362,0.00013,0.0,0 STARLINK-3769,1 52300U 22041AR  22215.58334491  .00013000  00000-0  83362-3 0  9997,2 52300  53.2160 238.3599 0001605  62.1602 277.4580 15.08830171 17349,6917.91,95.438,540.886,538.665,0.0
52300.0,STARLINK-3769,PAYLOAD,2022-08-03 22:00:01,15.08812749,0.0001527,53.2162,236.8617,70.52199999999998,280.7585,0.0027629,0.00043925,0.0,0 STARLINK-3769,1 52300U 22041AR  22215.91668981  .00043925  00000-0  27629-2 0  9990,2 52300  53.2162 236.8617 0001527  70.5220 280.7585 15.08812749  1309,6917.964,95.439,540.885,538.7719999999998,0.0
52300.0,STARLINK-3769,PAYLOAD,2022-08-04 14:00:01,15.08838768,0.0001669,53.2163,233.8706,60.9252,313.4681,0.00042506,6.483e-05,0.0,0 STARLINK-3769,1 52300U 22041AR  22216.58334491  .00006483  00000-0  42506-3 0  9990,2 52300  53.2163 233.8706 0001669  60.9252 313.4681 15.08838768  1301,6917.884,95.438,540.904,538.595,0.0
52300.0,STARLINK-3769,PAYLOAD,2022-08-04 22:00:00,15.08818208,0.0001583,53.2166,232.3725,69.126,316.8737,0.0029205,0.00046471,0.0,0 STARLINK-3769,1 52300U 22041AR  22216.91667824  .00046471  00000-0  29205-2 0  9997,2 52300  53.2166 232.3725 0001583  69.1260 316.8737 15.08818208  1300,6917.946999999999,95.439,540.9069999999998,538.717,0.0
52300.0,STARLINK-3769,PAYLOAD,2022-08-05 14:00:01,15.08848519,0.0001744,53.2167,229.3813,60.2985,348.9526,1.0808e-05,-1.16e-06,0.0,0 STARLINK-3769,1 52300U 22041AR  22217.58335648 -.00000116  00000-0  10808-4 0  9995,2 52300  53.2167 229.3813 0001744  60.2985 348.9526 15.08848519  1300,6917.854,95.437,540.9259999999998,538.513,0.0
52300.0,STARLINK-3769,PAYLOAD,2022-08-05 22:00:00,15.08826639,0.0001647,53.217,227.8833,68.4477,352.3556,0.0028571,0.0004546,0.0,0 STARLINK-3769,1 52300U 22041AR  22217.91667824  .00045460  00000-0  28571-2 0  9990,2 52300  53.2170 227.8833 0001647  68.4477 352.3556 15.08826639  1308,6917.920999999999,95.438,540.9259999999998,538.6469999999998,0.0
52300.0,STARLINK-3769,PAYLOAD,2022-08-06 14:00:01,15.088593,0.0001798,53.2169,224.8922,60.7113,23.2976,-0.00042638,-7.071e-05,0.0,0 STARLINK-3769,1 52300U 22041AR  22218.58334491 -.00007071  00000-0 -42638-3 0  9994,2 52300  53.2169 224.8922 0001798  60.7113  23.2976 15.08859300  1302,6917.821,95.436,540.93,538.443,0.0
52300.0,STARLINK-3769,PAYLOAD,2022-08-06 22:00:00,15.08841921,0.0001666999999999,53.2172,223.3943,68.3574,27.2735,0.0016733,0.00026444,0.0,0 STARLINK-3769,1 52300U 22041AR  22218.91667824  .00026444  00000-0  16733-2 0  9999,2 52300  53.2172 223.3943 0001667  68.3574  27.2735 15.08841921 17846,6917.875,95.437,540.893,538.586,0.0
52300.0,STARLINK-3769,PAYLOAD,2022-08-07 14:00:01,15.08840449,0.0001706999999999,53.2168,220.4031,59.7776,59.0515,-0.00089239,-0.00014463,0.0,0 STARLINK-3769,1 52300U 22041AR  22219.58334491 -.00014463  00000-0 -89239-3 0  9996,2 52300  53.2168 220.4031 0001707  59.7776  59.0515 15.08840449 17944,6917.879,95.438,540.925,538.563,0.0
52300.0,STARLINK-3769,PAYLOAD,2022-08-07 22:00:00,15.08815854,0.0001585999999999,53.2169,218.9053,68.4394,61.984,0.0023826,0.0003781,0.0,0 STARLINK-3769,1 52300U 22041AR  22219.91667824  .00037810  00000-0  23826-2 0  9990,2 52300  53.2169 218.9053 0001586  68.4394  61.9840 15.08815854  1307,6917.954000000002,95.439,540.9159999999998,538.722,0.0
52300.0,STARLINK-3769,PAYLOAD,2022-08-08 14:00:01,15.08855049,0.0001696999999999,53.2163,215.914,61.9186,91.7466,-0.0010984,-0.00017734,0.0,0 STARLINK-3769,1 52300U 22041AR  22220.58335648 -.00017734  00000-0 -10984-2 0  9997,2 52300  53.2163 215.9140 0001697  61.9186  91.7466 15.08855049  1300,6917.834,95.437,540.873,538.525,0.0
52300.0,STARLINK-3769,PAYLOAD,2022-08-08 22:00:00,15.08833094,0.0001601,53.2163,214.4164,70.5904,94.6209,0.00231,0.0003666,0.0,0 STARLINK-3769,1 52300U 22041AR  22220.91667824  .00036660  00000-0  23100-2 0  9999,2 52300  53.2163 214.4164 0001601  70.5904  94.6209 15.08833094  1302,6917.901,95.438,540.874,538.659,0.0
52300.0,STARLINK-3769,PAYLOAD,2022-08-09 06:00:00,15.08858572,0.0001705,53.2161,212.9217,64.6942,112.1209,-0.0011177,-0.00018041,0.0,0 STARLINK-3769,1 52300U 22041AR  22221.25001157 -.00018041  00000-0 -11177-2 0  9994,2 52300  53.2161 212.9217 0001705  64.6942 112.1209 15.08858572 18192,6917.824000000001,95.436,540.868,538.509,0.0
52300.0,STARLINK-3769,PAYLOAD,2022-08-09 14:00:01,15.08863241,0.0001628,53.2157,211.4249,62.8655,125.553,-0.0036312,-0.00057653,0.0,0 STARLINK-3769,1 52300U 22041AR  22221.58334491 -.00057653  00000-0 -36312-2 0  9990,2 52300  53.2157 211.4249 0001628  62.8655 125.5530 15.08863241  1300,6917.809,95.436,540.8009999999998,538.548,0.0
52300.0,STARLINK-3769,PAYLOAD,2022-08-09 22:00:00,15.0881763,0.0001530999999999,53.2157,209.9273,70.7417,129.276,0.0019592,0.00031011,0.0,0 STARLINK-3769,1 52300U 22041AR  22221.91667824  .00031011  00000-0  19592-2 0  9995,2 52300  53.2157 209.9273 0001531  70.7417 129.2760 15.08817630  1303,6917.949000000001,95.439,540.873,538.755,0.0
52300.0,STARLINK-3769,PAYLOAD,2022-08-10 14:00:01,15.0885268,0.0001619,53.2154,206.9357,63.3514,159.8312,-0.0018934999999999,-0.00030307,0.0,0 STARLINK-3769,1 52300U 22041AR  22222.58334491 -.00030307  00000-0 -18935-2 0  9999,2 52300  53.2154 206.9357 0001619  63.3514 159.8312 15.08852680  1309,6917.842,95.437,540.827,538.587,0.0
52300.0,STARLINK-3769,PAYLOAD,2022-08-10 16:00:00,15.08847862,0.0001594,53.2156,206.5612,65.6023,250.4814,-0.0015345,-0.00024632,0.0,0 STARLINK-3769,1 52300U 22041AR  22222.66667824 -.00024632  00000-0 -15345-2 0  9993,2 52300  53.2156 206.5612 0001594  65.6023 250.4814 15.08847862 18414,6917.856,95.437,540.8240000000002,538.619,0.0
52300.0,STARLINK-3769,PAYLOAD,2022-08-10 22:00:00,15.08829337,0.0001595999999999,53.2155,205.4382,71.1071,163.6729,0.0018265,0.00028892,0.0,0 STARLINK-3769,1 52300U 22041AR  22222.91667824  .00028892  00000-0  18265-2 0  9995,2 52300  53.2155 205.4382 0001596  71.1071 163.6729 15.08829337  1309,6917.913000000001,95.438,540.882,538.674,0.0
52300.0,STARLINK-3769,PAYLOAD,2022-08-11 06:00:02,15.08840872,0.0001718,53.2156,203.9435,63.6304,182.81,-7.6928e-05,-1.512e-05,0.0,0 STARLINK-3769,1 52300U 22041AR  22223.25002315 -.00001512  00000-0 -76928-4 0  9995,2 52300  53.2156 203.9435 0001718  63.6304 182.8100 15.08840872 18506,6917.878000000002,95.437,540.931,538.554,0.0
